#dP2019  5 28  0  0  0.00000000      96 __u+U IGS08 FIT  IAC
## 2055 172800.00000000   900.00000000 58631 0.0000000000000
+   96   C01C02C03C04C05C06C07C08C09C10C11C12C13C14C16E01E02
+        E03E04E05E07E08E09E11E12E13E14E15E18E19E21E24E25E26
+        E27E30E31E33E36G01G02G03G05G06G07G08G09G10G11G12G13
+        G14G15G16G17G18G19G20G21G22G23G24G25G26G27G28G29G30
+        G31G32J01J02J03R01R02R03R04R05R07R08R09R10R11R13R14
+        R15R16R17R18R19R20R21R22R23R24R26  0  0  0  0  0  0
++        13  0 14 13 13  8  9  8  8  8  7  7  8  8  8  4  4
++         4  4  5  5  4  5  4  4  5  5  5  4  4  5  5  4  5
++         4  4  5  5  5  3  3  3  3  3  3  3  3  3  3  3  3
++         3  3  3  3  3  3  3  3  3  3  3  3  3  3  3  3  3
++         3  3  8  9  8  5  5  5  5  5  5  5  5  5  5  6  5
++         5  6  5  5  6  6  5  5  5  6  8  0  0  0  0  0  0
%c M  cc GPS ccc cccc cccc cccc cccc ccccc ccccc ccccc ccccc
%c cc cc ccc ccc cccc cccc cccc cccc ccccc ccccc ccccc ccccc
%f  1.2500000  1.025000000  0.00000000000  0.000000000000000
%f  0.0000000  0.000000000  0.00000000000  0.000000000000000
%i    0    0    0    0      0      0      0      0         0
%i    0    0    0    0      0      0      0      0         0
/* INFORMATION & ANALYSIS CENTER (IAC)            FINAL DATA
/* S/V CLOCKS ARE ALIGNED TO GPS & GLONASS TIME RESPECTIVELY
/* USING THE BROADCAST EPHEMERIS                            
/* PCV:IGS14_2045 OL/AL:FES2004  NONE     YN ORB:CoN CLK:CoN
*  2019 05 28  4 30  0.00000000
PC01 -32236.233353  27146.891102   1037.932449    639.914164
PC02   4410.248379  41921.114465   -962.198086 999999.999999
PC03 -14801.816073  39443.058051    278.897798    413.341400
PC04 -39597.736261  14466.867857    538.954257   -211.749007
PC05  21850.500483  36007.274322   -782.285889   -180.428737
PC06  -7958.118135  27004.904840 -30940.593310    908.680713
PC07 -22584.975765  24379.265460  25814.374527    -40.830665
PC08 -18437.409812  37890.136298   3942.705587    161.280319
PC09   6809.033443  36086.141453 -20157.766131    797.237615
PC10  -5170.103435  26541.016020  32422.495268   -791.609124
PC11  10915.369987 -14719.363239 -20979.130063    308.009675
PC12  15276.308597  15833.079430 -17153.311526    708.817024
PC13  -8028.122255  39966.355291 -11181.765866   -740.370919
PC14  25449.321886   -856.138176  11438.456407    592.573134
PC16  -3962.423912  29414.077244 -29840.193535   -841.843118
PE01  23306.926505 -15463.524822  -9699.772666   -613.961097
PE02 -23276.771711  15479.356869   9737.043959     62.217696
PE03 -13556.842149  10881.894295 -23947.942890   -170.940795
PE04  -5338.882641 -22039.053899  19037.443492   -290.878641
PE05 -24682.381595  -6761.478304 -14863.303533   -480.144234
PE07  21323.523258  20338.836344  -2837.353380   -196.081341
PE08   5713.653289  21933.932199 -19033.591368   6349.107445
PE09 -21481.904267 -20152.360656   2861.008987   6426.353995
PE11 -10075.052125 -19718.540942  19648.900785   5687.837763
PE12   2706.155767 -29341.945890   2949.562008   6374.878014
PE13  10038.396144  19762.808182 -19607.687398    387.683063
PE14  14621.601956  23280.298442  -2979.922491   -583.415191
PE15  -2342.813973  29318.197487  -3286.458740    908.905800
PE18  -4305.033874 -27532.081841  -9999.570325   -680.539472
PE19  15074.749390  -9204.019957  23764.453455     -6.143181
PE21  27813.006697  -3769.430920   9407.951109   -536.151770
PE24 -16155.874186 -10081.369518 -22679.021891   6058.592846
PE25 -27792.575561   3716.524167  -9472.658146   1791.001317
PE26  16751.312657  -1263.545070 -24369.546324   4519.552611
PE27  15872.089683  10151.500128  22829.164651    461.019200
PE30  -5152.967922  18046.956061  22878.037190   4836.740864
PE31   5362.191939 -18080.021191 -22815.060902   -465.128309
PE33  13377.883817 -21742.334026 -14989.023151   -470.083463
PE36 -16572.990124   1386.702027  24488.802808    706.841755
PG01 -13948.194172  22323.133055   1581.898832    -26.770292
PG02  17422.273432  -6109.712415 -18433.574618   -223.650854
PG03 -14697.267633  12749.007353 -18081.725359    187.170630
PG05  26512.446061  -2254.980790   1750.495836      0.773075
PG06  12214.702755   8575.920242 -21924.405785    193.832522
PG07  -4162.697335  23417.875553  11565.480581    -32.924404
PG08 -11900.824540   9268.195106  21884.060493   -145.216889
PG09   6235.966852  23814.779456  -9995.518444    403.025962
PG10 -17000.221321 -11579.604531  16976.155118     33.673233
PG11  -9546.305277  22427.819937  10312.620649   -597.363895
PG12  16680.698029 -10888.565073 -17696.201595    238.486827
PG13  16066.129103    596.097428  21040.842842    -61.715267
PG14 -17400.856897 -15543.725264 -12539.947436    -78.618715
PG15  11067.319022 -11469.522663  20954.259491   -310.494915
PG16 -26652.158922   -266.606434   2585.414084    -43.479922
PG17  14839.428628  21448.613336  -4855.488871     61.990009
PG18 -16732.796181  17656.060268  10011.965039     57.049026
PG19  16911.592080  16220.917638 -12732.656323   -313.694678
PG20  -7586.555191 -14599.749420  20770.093228    525.014326
PG21  -1760.043087 -22016.023561  15661.395819   -184.305400
PG22 -20905.434388  10801.995237 -12010.102576   -708.009537
PG23  -4468.612880  18132.030268 -18393.102356   -184.328699
PG24  14743.818237 -21227.506217   5155.117766    -66.680103
PG25   2971.322632 -15025.416505 -21891.526989   -760.487407
PG26 -25009.717923  -4723.502500  -7924.261734    212.467864
PG27 -17467.276184  -3417.264582  19704.411333   -142.866193
PG28  15158.367805  13199.558569  17917.713878    767.757980
PG29  -1392.127741 -22745.433404 -13674.961469    190.861483
PG30   4631.656535  18296.004314  18635.107002   -112.859202
PG31 -13532.513511  -7025.987642 -21756.064787     35.128405
PG32 -17035.766741 -19375.474052  -6506.042293    -68.472631
PJ01 -29555.715046  16042.385205 -20759.887932   -297.740487
PJ02 -28765.757166  30415.164729   9325.153728     -0.023266
PJ03 -25364.882517  23979.452315  28719.745387      0.400711
PR01 -15067.305570 -15069.957632  14014.456081     44.448703
PR02 -23170.590873  -8933.437634  -5900.134671    370.695203
PR03 -15813.685121   2476.192839 -19829.652721     -4.184502
PR04   1356.321514  12578.041068 -22124.555442    307.913135
PR05  16743.738587  15006.171379 -12012.670853     28.940280
PR07  15349.257019  -2896.541628  20195.431363    -20.793734
PR08   -561.570800 -12323.008288  22386.130221     17.553219
PR09  20418.281918  -4543.728648  14659.996701     72.005126
PR10  21746.913730 -13415.575016    224.476432     50.821311
PR11  10643.566249 -16241.766380 -16557.221047    -67.543240
PR13 -19377.058630   3529.750915 -16224.483000    -24.167372
PR14 -21546.936967  13636.259999   -112.214550     39.370860
PR15 -11424.545437  16230.898171  16038.644831    102.213119
PR16   5616.545749   9514.807824  22967.210930      9.113868
PR17  -9003.591653  11919.713782  20691.065923    231.143716
PR18  -2677.950842  24045.708775   7992.674927     -5.314169
PR19   4489.780668  23415.710317  -9065.311201    -33.036317
PR20  10037.410317   7765.165742 -22113.170131   -379.460569
PR21   8778.041897 -12505.694522 -20422.285372    -50.581713
PR22   1509.194132 -24973.528504  -5307.713840    -21.262452
PR23  -6941.910458 -20326.344138  13755.148315    230.719030
PR24 -10373.007108  -5729.367467  22563.644030   -180.925453
PR26   9882.172853  10485.280728 -21045.258539     -9.747596
EOF
